[{"OBJECT_NAME":"FOSSASAT-2E20 (TAT-O)","OBJECT_ID":"2025-009DN","EPOCH":"2026-03-09T17:00:18.734688","MEAN_MOTION":15.2699108,"ECCENTRICITY":0.00021892,"INCLINATION":97.3231,"RA_OF_ASC_NODE":146.2859,"ARG_OF_PERICENTER":347.5575,"MEAN_ANOMALY":12.561,"EPHEMERIS_TYPE":0,"CLASSIFICATION_TYPE":"U","NORAD_CAT_ID":63003,"ELEMENT_SET_NO":999,"REV_AT_EPOCH":12131,"BSTAR":0.00061862572,"MEAN_MOTION_DOT":0.00016337,"MEAN_MOTION_DDOT":0},{"OBJECT_NAME":"STARLINK-35874","OBJECT_ID":"2025-288D","EPOCH":"2026-03-09T05:45:41.692896","MEAN_MOTION":15.27570001,"ECCENTRICITY":0.00018406,"INCLINATION":43.0023,"RA_OF_ASC_NODE":26.4182,"ARG_OF_PERICENTER":276.9906,"MEAN_ANOMALY":83.0737,"EPHEMERIS_TYPE":0,"CLASSIFICATION_TYPE":"U","NORAD_CAT_ID":66962,"ELEMENT_SET_NO":999,"REV_AT_EPOCH":1521,"BSTAR":0.00086913696,"MEAN_MOTION_DOT":0.00023725,"MEAN_MOTION_DDOT":0}]
